{
  "type": "FeatureCollection",
  "features": [
    {
      "type": "Feature",
      "geometry": {
        "type": "Polygon",
        "coordinates": [
          [
            [
              75.706337797057,
              31.251528557414243
            ],
            [
              75.70660984692206,
              31.251393422279108
            ],
            [
              75.70666220294301,
              31.251471442585757
            ],
            [
              75.70639015307795,
              31.251606577720892
            ],
            [
              75.706337797057,
              31.251528557414243
            ]
          ]
        ]
      },
      "properties": {
        "id": "gate-01",
        "name": "Main Gate 1 (GT Road / NH-44)",
        "block_code": "GATE-1",
        "category": "gate",
        "height": 10,
        "min_height": 0,
        "building_levels": 2,
        "color": "#F59E0B",
        "confidence": "high",
        "description": "LPU Main Gate 1 (GT Road / NH-44)",
        "facilities": [
          "gate"
        ],
        "has_indoor_map": false
      }
    },
    {
      "type": "Feature",
      "geometry": {
        "type": "Polygon",
        "coordinates": [
          [
            [
              75.70554009939187,
              31.251973059630117
            ],
            [
              75.70590283254529,
              31.251792879449937
            ],
            [
              75.70605990060812,
              31.25202694036988
            ],
            [
              75.7056971674547,
              31.25220712055006
            ],
            [
              75.70554009939187,
              31.251973059630117
            ]
          ]
        ]
      },
      "properties": {
        "id": "b-01",
        "name": "Block 1 - School of Fashion Design",
        "block_code": "B-01",
        "category": "academic",
        "height": 16,
        "min_height": 0,
        "building_levels": 4,
        "color": "#EC4899",
        "confidence": "high",
        "description": "LPU Block 1 - School of Fashion Design",
        "facilities": [
          "academic"
        ],
        "has_indoor_map": false
      }
    },
    {
      "type": "Feature",
      "geometry": {
        "type": "Polygon",
        "coordinates": [
          [
            [
              75.70551739150925,
              31.252142342342346
            ],
            [
              75.70553682830285,
              31.252183424206898
            ],
            [
              75.70554332097369,
              31.252228986013805
            ],
            [
              75.70553662001203,
              31.252277276848375
            ],
            [
              75.7055169829321,
              31.252326440920918
            ],
            [
              75.70548516437584,
              31.2523745888837
            ],
            [
              75.70544238711254,
              31.25241987043751
            ],
            [
              75.70539029504845,
              31.252460545437632
            ],
            [
              75.70533089005237,
              31.25249505076662
            ],
            [
              75.70526645502497,
              31.252522060404033
            ],
            [
              75.70519946616822,
              31.25254053638465
            ],
            [
              75.70513249782634,
              31.252549768686904
            ],
            [
              75.70506812355514,
              31.25254940251859
            ],
            [
              75.70500881722175,
              31.252539451951353
            ],
            [
              75.70495685793533,
              31.25252029937991
            ],
            [
              75.70491424246208,
              31.252492680826844
            ],
            [
              75.70488260849076,
              31.252457657657658
            ],
            [
              75.70486317169716,
              31.252416575793106
            ],
            [
              75.70485667902632,
              31.2523710139862
            ],
            [
              75.70486337998798,
              31.25232272315163
            ],
            [
              75.70488301706791,
              31.252273559079086
            ],
            [
              75.70491483562417,
              31.252225411116303
            ],
            [
              75.70495761288747,
              31.252180129562493
            ],
            [
              75.70500970495156,
              31.25213945456237
            ],
            [
              75.70506910994764,
              31.252104949233384
            ],
            [
              75.70513354497504,
              31.25207793959597
            ],
            [
              75.70520053383179,
              31.252059463615353
            ],
            [
              75.70526750217367,
              31.2520502313131
            ],
            [
              75.70533187644487,
              31.252050597481414
            ],
            [
              75.70539118277826,
              31.25206054804865
            ],
            [
              75.70544314206468,
              31.252079700620094
            ],
            [
              75.70548575753793,
              31.25210731917316
            ],
            [
              75.70551739150925,
              31.252142342342346
            ]
          ]
        ]
      },
      "properties": {
        "id": "b-02",
        "name": "Block 2 - Baldev Raj Mittal Auditorium",
        "block_code": "B-02",
        "category": "auditorium",
        "height": 18,
        "min_height": 0,
        "building_levels": 4,
        "color": "#8B5CF6",
        "confidence": "high",
        "description": "LPU Block 2 - Baldev Raj Mittal Auditorium",
        "facilities": [
          "auditorium"
        ],
        "has_indoor_map": false
      }
    },
    {
      "type": "Feature",
      "geometry": {
        "type": "Polygon",
        "coordinates": [
          [
            [
              75.7047174285698,
              31.25268432089138
            ],
            [
              75.70512550336738,
              31.25248161818868
            ],
            [
              75.7052825714302,
              31.252715679108622
            ],
            [
              75.70487449663261,
              31.252918381811323
            ],
            [
              75.7047174285698,
              31.25268432089138
            ]
          ]
        ]
      },
      "properties": {
        "id": "b-03",
        "name": "Block 3 - Physiotherapy & Health Sciences",
        "block_code": "B-03",
        "category": "academic",
        "height": 16,
        "min_height": 0,
        "building_levels": 4,
        "color": "#06B6D4",
        "confidence": "high",
        "description": "LPU Block 3 - Physiotherapy & Health Sciences",
        "facilities": [
          "academic"
        ],
        "has_indoor_map": false
      }
    },
    {
      "type": "Feature",
      "geometry": {
        "type": "Polygon",
        "coordinates": [
          [
            [
              75.70419706008258,
              31.252940084368518
            ],
            [
              75.70474115981271,
              31.252669814098248
            ],
            [
              75.70500293991742,
              31.253059915631482
            ],
            [
              75.70482157334071,
              31.253150005721572
            ],
            [
              75.70466450527788,
              31.252915944801632
            ],
            [
              75.70430177212447,
              31.253096124981813
            ],
            [
              75.70419706008258,
              31.252940084368518
            ]
          ]
        ]
      },
      "properties": {
        "id": "b-04-07",
        "name": "Blocks 4 & 7 - Pharmaceutical Sciences",
        "block_code": "B-04/07",
        "category": "academic",
        "height": 18,
        "min_height": 0,
        "building_levels": 5,
        "color": "#10B981",
        "confidence": "high",
        "description": "LPU Blocks 4 & 7 - Pharmaceutical Sciences",
        "facilities": [
          "academic"
        ],
        "has_indoor_map": false
      }
    },
    {
      "type": "Feature",
      "geometry": {
        "type": "Polygon",
        "coordinates": [
          [
            [
              75.70368166874246,
              31.252776077075982
            ],
            [
              75.70413508518423,
              31.252550851850756
            ],
            [
              75.70431833125753,
              31.25282392292402
            ],
            [
              75.70386491481575,
              31.253049148149245
            ],
            [
              75.70368166874246,
              31.252776077075982
            ]
          ]
        ]
      },
      "properties": {
        "id": "b-06",
        "name": "Block 6 - Architecture & Design",
        "block_code": "B-06",
        "category": "academic",
        "height": 16,
        "min_height": 0,
        "building_levels": 4,
        "color": "#F97316",
        "confidence": "high",
        "description": "LPU Block 6 - Architecture & Design",
        "facilities": [
          "academic"
        ],
        "has_indoor_map": false
      }
    },
    {
      "type": "Feature",
      "geometry": {
        "type": "Polygon",
        "coordinates": [
          [
            [
              75.7040174285698,
              31.25248432089138
            ],
            [
              75.70442550336739,
              31.25228161818868
            ],
            [
              75.70458257143021,
              31.252515679108622
            ],
            [
              75.70417449663262,
              31.252718381811324
            ],
            [
              75.7040174285698,
              31.25248432089138
            ]
          ]
        ]
      },
      "properties": {
        "id": "b-08",
        "name": "Block 8 - Animation & Fine Arts",
        "block_code": "B-08",
        "category": "academic",
        "height": 15,
        "min_height": 0,
        "building_levels": 4,
        "color": "#D946EF",
        "confidence": "high",
        "description": "LPU Block 8 - Animation & Fine Arts",
        "facilities": [
          "academic"
        ],
        "has_indoor_map": false
      }
    },
    {
      "type": "Feature",
      "geometry": {
        "type": "Polygon",
        "coordinates": [
          [
            [
              75.70206607596533,
              31.253096201707177
            ],
            [
              75.7027548558968,
              31.252880513328503
            ],
            [
              75.70293392403467,
              31.253303798292823
            ],
            [
              75.70268793120201,
              31.253380829856635
            ],
            [
              75.70259839713307,
              31.253169187374475
            ],
            [
              75.70215561003427,
              31.253307844189337
            ],
            [
              75.70206607596533,
              31.253096201707177
            ]
          ]
        ]
      },
      "properties": {
        "id": "b-13-14",
        "name": "Blocks 13 & 14 - Mittal School of Business",
        "block_code": "B-13/14",
        "category": "academic",
        "height": 20,
        "min_height": 0,
        "building_levels": 5,
        "color": "#2563EB",
        "confidence": "high",
        "description": "LPU Blocks 13 & 14 - Mittal School of Business",
        "facilities": [
          "academic"
        ],
        "has_indoor_map": false
      }
    },
    {
      "type": "Feature",
      "geometry": {
        "type": "Polygon",
        "coordinates": [
          [
            [
              75.70283318134565,
              31.253223123890848
            ],
            [
              75.70342356414405,
              31.2530382481377
            ],
            [
              75.70356681865434,
              31.25337687610915
            ],
            [
              75.70297643585594,
              31.2535617518623
            ],
            [
              75.70283318134565,
              31.253223123890848
            ]
          ]
        ]
      },
      "properties": {
        "id": "b-15-unimall",
        "name": "UniMall & Block 15",
        "block_code": "UNIMALL",
        "category": "shopping",
        "height": 22,
        "min_height": 0,
        "building_levels": 4,
        "color": "#F59E0B",
        "confidence": "high",
        "description": "LPU UniMall & Block 15",
        "facilities": [
          "shopping"
        ],
        "has_indoor_map": false
      }
    },
    {
      "type": "Feature",
      "geometry": {
        "type": "Polygon",
        "coordinates": [
          [
            [
              75.70372356020943,
              31.2537
            ],
            [
              75.7037135001468,
              31.253770302818744
            ],
            [
              75.70368370656152,
              31.25383790393959
            ],
            [
              75.70363532440435,
              31.253900205489376
            ],
            [
              75.70357021297444,
              31.25395481325448
            ],
            [
              75.70349087446755,
              31.253999628689115
            ],
            [
              75.70340035781798,
              31.254032929561262
            ],
            [
              75.70330214152985,
              31.25405343613708
            ],
            [
              75.7032,
              31.25406036036036
            ],
            [
              75.70309785847014,
              31.25405343613708
            ],
            [
              75.70299964218201,
              31.254032929561262
            ],
            [
              75.70290912553244,
              31.253999628689115
            ],
            [
              75.70282978702555,
              31.25395481325448
            ],
            [
              75.70276467559565,
              31.253900205489376
            ],
            [
              75.70271629343847,
              31.25383790393959
            ],
            [
              75.70268649985319,
              31.253770302818744
            ],
            [
              75.70267643979057,
              31.2537
            ],
            [
              75.70268649985319,
              31.253629697181253
            ],
            [
              75.70271629343847,
              31.253562096060406
            ],
            [
              75.70276467559565,
              31.25349979451062
            ],
            [
              75.70282978702555,
              31.253445186745516
            ],
            [
              75.70290912553244,
              31.25340037131088
            ],
            [
              75.70299964218201,
              31.253367070438735
            ],
            [
              75.70309785847014,
              31.253346563862916
            ],
            [
              75.7032,
              31.253339639639638
            ],
            [
              75.70330214152985,
              31.253346563862916
            ],
            [
              75.70340035781798,
              31.253367070438735
            ],
            [
              75.70349087446755,
              31.25340037131088
            ],
            [
              75.70357021297444,
              31.253445186745516
            ],
            [
              75.70363532440435,
              31.25349979451062
            ],
            [
              75.70368370656152,
              31.253562096060406
            ],
            [
              75.7037135001468,
              31.253629697181253
            ],
            [
              75.70372356020943,
              31.2537
            ]
          ]
        ]
      },
      "properties": {
        "id": "unipolis",
        "name": "Unipolis Grand Amphitheatre",
        "block_code": "UNIPOLIS",
        "category": "auditorium",
        "height": 18,
        "min_height": 0,
        "building_levels": 2,
        "color": "#8B5CF6",
        "confidence": "high",
        "description": "LPU Unipolis Grand Amphitheatre",
        "facilities": [
          "auditorium"
        ],
        "has_indoor_map": false
      }
    },
    {
      "type": "Feature",
      "geometry": {
        "type": "Polygon",
        "coordinates": [
          [
            [
              75.70382848988977,
              31.25367340009652
            ],
            [
              75.70449877788921,
              31.253571714226716
            ],
            [
              75.70457151011023,
              31.253926599903476
            ],
            [
              75.70390122211079,
              31.25402828577328
            ],
            [
              75.70382848988977,
              31.25367340009652
            ]
          ]
        ]
      },
      "properties": {
        "id": "b-18-20",
        "name": "Blocks 18 & 20 - School of Law & LIT Market",
        "block_code": "B-18/20",
        "category": "academic",
        "height": 18,
        "min_height": 0,
        "building_levels": 5,
        "color": "#0EA5E9",
        "confidence": "high",
        "description": "LPU Blocks 18 & 20 - School of Law & LIT Market",
        "facilities": [
          "academic"
        ],
        "has_indoor_map": false
      }
    },
    {
      "type": "Feature",
      "geometry": {
        "type": "Polygon",
        "coordinates": [
          [
            [
              75.701498970585,
              31.253369279523508
            ],
            [
              75.70228614764955,
              31.25312277851931
            ],
            [
              75.70250102941499,
              31.25363072047649
            ],
            [
              75.70225503658232,
              31.253707752040302
            ],
            [
              75.7021296888858,
              31.25341145256528
            ],
            [
              75.70158850465394,
              31.253580922005668
            ],
            [
              75.701498970585,
              31.253369279523508
            ]
          ]
        ]
      },
      "properties": {
        "id": "b-25-28",
        "name": "Blocks 25-28 - Bioengineering & Agriculture",
        "block_code": "B-25-28",
        "category": "academic",
        "height": 18,
        "min_height": 0,
        "building_levels": 5,
        "color": "#65A30D",
        "confidence": "high",
        "description": "LPU Blocks 25-28 - Bioengineering & Agriculture",
        "facilities": [
          "academic"
        ],
        "has_indoor_map": false
      }
    },
    {
      "type": "Feature",
      "geometry": {
        "type": "Polygon",
        "coordinates": [
          [
            [
              75.701801029415,
              31.25373072047649
            ],
            [
              75.70101385235046,
              31.25397722148069
            ],
            [
              75.70079897058501,
              31.253469279523507
            ],
            [
              75.70104496341769,
              31.253392247959695
            ],
            [
              75.7011703111142,
              31.253688547434717
            ],
            [
              75.70171149534606,
              31.25351907799433
            ],
            [
              75.701801029415,
              31.25373072047649
            ]
          ]
        ]
      },
      "properties": {
        "id": "b-29-32",
        "name": "Blocks 29-32 - Central Administration",
        "block_code": "B-29-32",
        "category": "administration",
        "height": 20,
        "min_height": 0,
        "building_levels": 5,
        "color": "#0F766E",
        "confidence": "high",
        "description": "LPU Blocks 29-32 - Central Administration",
        "facilities": [
          "administration"
        ],
        "has_indoor_map": false
      }
    },
    {
      "type": "Feature",
      "geometry": {
        "type": "Polygon",
        "coordinates": [
          [
            [
              75.70123392403467,
              31.25390379829282
            ],
            [
              75.7005451441032,
              31.254119486671495
            ],
            [
              75.70036607596533,
              31.253696201707175
            ],
            [
              75.700612068798,
              31.253619170143363
            ],
            [
              75.70070160286693,
              31.253830812625523
            ],
            [
              75.70114438996573,
              31.25369215581066
            ],
            [
              75.70123392403467,
              31.25390379829282
            ]
          ]
        ]
      },
      "properties": {
        "id": "b-33-34",
        "name": "Blocks 33 & 34 - Computer Science & Engineering",
        "block_code": "B-33/34",
        "category": "academic",
        "height": 24,
        "min_height": 0,
        "building_levels": 6,
        "color": "#635BFF",
        "confidence": "high",
        "description": "LPU Blocks 33 & 34 - Computer Science & Engineering",
        "facilities": [
          "academic"
        ],
        "has_indoor_map": false
      }
    },
    {
      "type": "Feature",
      "geometry": {
        "type": "Polygon",
        "coordinates": [
          [
            [
              75.70084278709881,
              31.25396134318514
            ],
            [
              75.70085873319134,
              31.254021812596953
            ],
            [
              75.70085705042459,
              31.254085286706818
            ],
            [
              75.70083780346633,
              31.254149326240288
            ],
            [
              75.7008017319664,
              31.254211470194004
            ],
            [
              75.70075022213227,
              31.254269330410683
            ],
            [
              75.70068525345803,
              31.254320683354635
            ],
            [
              75.70060932265336,
              31.254363555561035
            ],
            [
              75.70052534769651,
              31.254396299475022
            ],
            [
              75.70043655569798,
              31.254417656766357
            ],
            [
              75.70034635888447,
              31.2544268066863
            ],
            [
              75.70025822346896,
              31.254423397608566
            ],
            [
              75.70017553644603,
              31.2544075605421
            ],
            [
              75.70010147543158,
              31.254379904096478
            ],
            [
              75.7000388865489,
              31.254341491093406
            ],
            [
              75.69999017505363,
              31.25429379772304
            ],
            [
              75.6999572129012,
              31.254238656814863
            ],
            [
              75.69994126680866,
              31.25417818740305
            ],
            [
              75.69994294957542,
              31.254114713293184
            ],
            [
              75.69996219653368,
              31.254050673759714
            ],
            [
              75.69999826803361,
              31.253988529805998
            ],
            [
              75.70004977786773,
              31.25393066958932
            ],
            [
              75.70011474654197,
              31.253879316645367
            ],
            [
              75.70019067734664,
              31.253836444438967
            ],
            [
              75.70027465230349,
              31.25380370052498
            ],
            [
              75.70036344430203,
              31.253782343233645
            ],
            [
              75.70045364111553,
              31.2537731933137
            ],
            [
              75.70054177653104,
              31.253776602391437
            ],
            [
              75.70062446355398,
              31.253792439457904
            ],
            [
              75.70069852456842,
              31.253820095903524
            ],
            [
              75.70076111345111,
              31.253858508906596
            ],
            [
              75.70080982494638,
              31.253906202276962
            ],
            [
              75.70084278709881,
              31.25396134318514
            ]
          ]
        ]
      },
      "properties": {
        "id": "b-35",
        "name": "Block 35 - Shanti Devi Mittal Auditorium",
        "block_code": "B-35",
        "category": "auditorium",
        "height": 22,
        "min_height": 0,
        "building_levels": 4,
        "color": "#7C3AED",
        "confidence": "high",
        "description": "LPU Block 35 - Shanti Devi Mittal Auditorium",
        "facilities": [
          "auditorium"
        ],
        "has_indoor_map": false
      }
    },
    {
      "type": "Feature",
      "geometry": {
        "type": "Polygon",
        "coordinates": [
          [
            [
              75.70057502937222,
              31.254217365955395
            ],
            [
              75.70126380930368,
              31.25400167757672
            ],
            [
              75.70142497062777,
              31.254382634044607
            ],
            [
              75.7007361906963,
              31.25459832242328
            ],
            [
              75.70057502937222,
              31.254217365955395
            ]
          ]
        ]
      },
      "properties": {
        "id": "b-36-38",
        "name": "Blocks 36-38 - Central Library & Research",
        "block_code": "B-36-38",
        "category": "library",
        "height": 24,
        "min_height": 0,
        "building_levels": 4,
        "color": "#8B5CF6",
        "confidence": "high",
        "description": "LPU Blocks 36-38 - Central Library & Research",
        "facilities": [
          "library"
        ],
        "has_indoor_map": false
      }
    },
    {
      "type": "Feature",
      "geometry": {
        "type": "Polygon",
        "coordinates": [
          [
            [
              75.70181527453187,
              31.254380795394415
            ],
            [
              75.70240565733027,
              31.254195919641266
            ],
            [
              75.70258472546814,
              31.254619204605586
            ],
            [
              75.70199434266974,
              31.254804080358735
            ],
            [
              75.70181527453187,
              31.254380795394415
            ]
          ]
        ]
      },
      "properties": {
        "id": "b-47-indoor-stadium",
        "name": "Block 47 - Indoor Sports Stadium",
        "block_code": "B-47",
        "category": "sports",
        "height": 18,
        "min_height": 0,
        "building_levels": 3,
        "color": "#059669",
        "confidence": "high",
        "description": "LPU Block 47 - Indoor Sports Stadium",
        "facilities": [
          "sports"
        ],
        "has_indoor_map": false
      }
    },
    {
      "type": "Feature",
      "geometry": {
        "type": "Polygon",
        "coordinates": [
          [
            [
              75.70289962865549,
              31.254509662799013
            ],
            [
              75.70353921002042,
              31.2543093807331
            ],
            [
              75.70370037134451,
              31.254690337200987
            ],
            [
              75.70306078997957,
              31.2548906192669
            ],
            [
              75.70289962865549,
              31.254509662799013
            ]
          ]
        ]
      },
      "properties": {
        "id": "apartments-41-44",
        "name": "Apartments 41-44 Complex",
        "block_code": "APT-41-44",
        "category": "residential",
        "height": 24,
        "min_height": 0,
        "building_levels": 8,
        "color": "#475569",
        "confidence": "high",
        "description": "LPU Apartments 41-44 Complex",
        "facilities": [
          "residential"
        ],
        "has_indoor_map": false
      }
    },
    {
      "type": "Feature",
      "geometry": {
        "type": "Polygon",
        "coordinates": [
          [
            [
              75.70218237991219,
              31.255107717578085
            ],
            [
              75.70267436557752,
              31.25495365445046
            ],
            [
              75.70281762008781,
              31.255292282421912
            ],
            [
              75.70232563442248,
              31.255446345549537
            ],
            [
              75.70218237991219,
              31.255107717578085
            ]
          ]
        ]
      },
      "properties": {
        "id": "bh-1-2",
        "name": "Boys Hostels BH-1 & BH-2",
        "block_code": "BH-1/2",
        "category": "hostel",
        "height": 28,
        "min_height": 0,
        "building_levels": 8,
        "color": "#0D9488",
        "confidence": "high",
        "description": "LPU Boys Hostels BH-1 & BH-2",
        "facilities": [
          "hostel"
        ],
        "has_indoor_map": false
      }
    },
    {
      "type": "Feature",
      "geometry": {
        "type": "Polygon",
        "coordinates": [
          [
            [
              75.70118237991218,
              31.255307717578088
            ],
            [
              75.70167436557752,
              31.255153654450464
            ],
            [
              75.70181762008781,
              31.255492282421915
            ],
            [
              75.70132563442247,
              31.25564634554954
            ],
            [
              75.70118237991218,
              31.255307717578088
            ]
          ]
        ]
      },
      "properties": {
        "id": "bh-3-4",
        "name": "Boys Hostels BH-3 & BH-4",
        "block_code": "BH-3/4",
        "category": "hostel",
        "height": 28,
        "min_height": 0,
        "building_levels": 8,
        "color": "#0891B2",
        "confidence": "high",
        "description": "LPU Boys Hostels BH-3 & BH-4",
        "facilities": [
          "hostel"
        ],
        "has_indoor_map": false
      }
    },
    {
      "type": "Feature",
      "geometry": {
        "type": "Polygon",
        "coordinates": [
          [
            [
              75.70003478421259,
              31.255653936516374
            ],
            [
              75.70082196127713,
              31.255407435512176
            ],
            [
              75.70096521578742,
              31.255746063483627
            ],
            [
              75.70017803872288,
              31.255992564487826
            ],
            [
              75.70003478421259,
              31.255653936516374
            ]
          ]
        ]
      },
      "properties": {
        "id": "bh-5-8",
        "name": "Boys Hostels BH-5 to BH-8",
        "block_code": "BH-5-8",
        "category": "hostel",
        "height": 26,
        "min_height": 0,
        "building_levels": 7,
        "color": "#0E7490",
        "confidence": "high",
        "description": "LPU Boys Hostels BH-5 to BH-8",
        "facilities": [
          "hostel"
        ],
        "has_indoor_map": false
      }
    },
    {
      "type": "Feature",
      "geometry": {
        "type": "Polygon",
        "coordinates": [
          [
            [
              75.69862422793877,
              31.25500195964263
            ],
            [
              75.69921461073716,
              31.25481708388948
            ],
            [
              75.69937577206123,
              31.255198040357367
            ],
            [
              75.69878538926284,
              31.255382916110516
            ],
            [
              75.69862422793877,
              31.25500195964263
            ]
          ]
        ]
      },
      "properties": {
        "id": "b-55-56",
        "name": "Blocks 55 & 56 - Heavy Engineering",
        "block_code": "B-55/56",
        "category": "academic",
        "height": 22,
        "min_height": 0,
        "building_levels": 5,
        "color": "#78716C",
        "confidence": "high",
        "description": "LPU Blocks 55 & 56 - Heavy Engineering",
        "facilities": [
          "academic"
        ],
        "has_indoor_map": false
      }
    },
    {
      "type": "Feature",
      "geometry": {
        "type": "Polygon",
        "coordinates": [
          [
            [
              75.69812422793876,
              31.255401959642633
            ],
            [
              75.69871461073716,
              31.255217083889484
            ],
            [
              75.69887577206123,
              31.25559804035737
            ],
            [
              75.69828538926284,
              31.25578291611052
            ],
            [
              75.69812422793876,
              31.255401959642633
            ]
          ]
        ]
      },
      "properties": {
        "id": "b-57-58",
        "name": "Blocks 57 & 58 - Polytechnic & Student Labs",
        "block_code": "B-57/58",
        "category": "academic",
        "height": 18,
        "min_height": 0,
        "building_levels": 4,
        "color": "#57534E",
        "confidence": "high",
        "description": "LPU Blocks 57 & 58 - Polytechnic & Student Labs",
        "facilities": [
          "academic"
        ],
        "has_indoor_map": false
      }
    },
    {
      "type": "Feature",
      "geometry": {
        "type": "Polygon",
        "coordinates": [
          [
            [
              75.70039038279839,
              31.25441512424685
            ],
            [
              75.70041047977308,
              31.254492997502602
            ],
            [
              75.70040711635245,
              31.25457498280432
            ],
            [
              75.70038042179087,
              31.254657929502837
            ],
            [
              75.70033142194536,
              31.254738650003052
            ],
            [
              75.70026199985253,
              31.2548140422614
            ],
            [
              75.70017482336445,
              31.25488120899568
            ],
            [
              75.70007324262468,
              31.254937569025962
            ],
            [
              75.69996116132408,
              31.254980956467886
            ],
            [
              75.69984288668417,
              31.25500970396639
            ],
            [
              75.69972296393304,
              31.255022706771236
            ],
            [
              75.69960600163476,
              31.255019465191914
            ],
            [
              75.69949649458488,
              31.25500010380051
            ],
            [
              75.69939865107787,
              31.254965366644427
            ],
            [
              75.69931623118487,
              31.254916588653103
            ],
            [
              75.69925240225614,
              31.254855644337386
            ],
            [
              75.6992096172016,
              31.25478487575315
            ],
            [
              75.69918952022691,
              31.254707002497398
            ],
            [
              75.69919288364754,
              31.25462501719568
            ],
            [
              75.69921957820912,
              31.254542070497163
            ],
            [
              75.69926857805463,
              31.254461349996948
            ],
            [
              75.69933800014746,
              31.2543859577386
            ],
            [
              75.69942517663554,
              31.25431879100432
            ],
            [
              75.69952675737531,
              31.254262430974038
            ],
            [
              75.69963883867591,
              31.254219043532114
            ],
            [
              75.69975711331583,
              31.25419029603361
            ],
            [
              75.69987703606695,
              31.254177293228764
            ],
            [
              75.69999399836523,
              31.254180534808086
            ],
            [
              75.70010350541511,
              31.25419989619949
            ],
            [
              75.70020134892212,
              31.254234633355573
            ],
            [
              75.70028376881513,
              31.254283411346897
            ],
            [
              75.70034759774386,
              31.254344355662614
            ],
            [
              75.70039038279839,
              31.25441512424685
            ]
          ]
        ]
      },
      "properties": {
        "id": "cricket-stadium",
        "name": "Cricket Stadium & Athletic Track",
        "block_code": "STADIUM",
        "category": "sports",
        "height": 12,
        "min_height": 0,
        "building_levels": 2,
        "color": "#16A34A",
        "confidence": "high",
        "description": "LPU Cricket Stadium & Athletic Track",
        "facilities": [
          "sports"
        ],
        "has_indoor_map": false
      }
    },
    {
      "type": "Feature",
      "geometry": {
        "type": "Polygon",
        "coordinates": [
          [
            [
              75.70045108815944,
              31.25486545238728
            ],
            [
              75.70104147095785,
              31.25468057663413
            ],
            [
              75.70114891184056,
              31.25493454761272
            ],
            [
              75.70055852904215,
              31.25511942336587
            ],
            [
              75.70045108815944,
              31.25486545238728
            ]
          ]
        ]
      },
      "properties": {
        "id": "olympic-pool",
        "name": "Olympic Swimming Pool Complex",
        "block_code": "POOL",
        "category": "sports",
        "height": 12,
        "min_height": 0,
        "building_levels": 1,
        "color": "#0284C7",
        "confidence": "high",
        "description": "LPU Olympic Swimming Pool Complex",
        "facilities": [
          "sports"
        ],
        "has_indoor_map": false
      }
    },
    {
      "type": "Feature",
      "geometry": {
        "type": "Polygon",
        "coordinates": [
          [
            [
              75.70452488600925,
              31.254442342918136
            ],
            [
              75.70496767310804,
              31.254303686103274
            ],
            [
              75.70507511399076,
              31.254557657081865
            ],
            [
              75.70463232689197,
              31.254696313896726
            ],
            [
              75.70452488600925,
              31.254442342918136
            ]
          ]
        ]
      },
      "properties": {
        "id": "uni-hospital",
        "name": "Uni-Hospital 24/7 Medical Center",
        "block_code": "HOSPITAL",
        "category": "medical",
        "height": 16,
        "min_height": 0,
        "building_levels": 4,
        "color": "#EF4444",
        "confidence": "high",
        "description": "LPU Uni-Hospital 24/7 Medical Center",
        "facilities": [
          "medical"
        ],
        "has_indoor_map": false
      }
    },
    {
      "type": "Feature",
      "geometry": {
        "type": "Polygon",
        "coordinates": [
          [
            [
              75.70500637679423,
              31.253485129413562
            ],
            [
              75.70573184310106,
              31.2531247690532
            ],
            [
              75.70599362320577,
              31.253514870586436
            ],
            [
              75.70526815689894,
              31.253875230946797
            ],
            [
              75.70500637679423,
              31.253485129413562
            ]
          ]
        ]
      },
      "properties": {
        "id": "gh-cluster",
        "name": "Girls Hostel Complex (GH 9-12, 21)",
        "block_code": "GH",
        "category": "hostel",
        "height": 26,
        "min_height": 0,
        "building_levels": 8,
        "color": "#EC4899",
        "confidence": "high",
        "description": "LPU Girls Hostel Complex (GH 9-12, 21)",
        "facilities": [
          "hostel"
        ],
        "has_indoor_map": false
      }
    }
  ]
}