{
  "type": "FeatureCollection",
  "features": [
    {
      "type": "Feature",
      "geometry": {
        "type": "Polygon",
        "coordinates": [
          [
            [
              75.705175594114,
              31.252057114828485
            ],
            [
              75.70571969384412,
              31.251786844558218
            ],
            [
              75.705824405886,
              31.251942885171513
            ],
            [
              75.70528030615588,
              31.25221315544178
            ],
            [
              75.705175594114,
              31.252057114828485
            ]
          ]
        ]
      },
      "properties": {
        "name": "Central Promenade Lawns",
        "type": "lawn"
      }
    },
    {
      "type": "Feature",
      "geometry": {
        "type": "Polygon",
        "coordinates": [
          [
            [
              75.70279057591624,
              31.253564864864863
            ],
            [
              75.70320942408377,
              31.253564864864863
            ],
            [
              75.70320942408377,
              31.253835135135134
            ],
            [
              75.70279057591624,
              31.253835135135134
            ],
            [
              75.70279057591624,
              31.253564864864863
            ]
          ]
        ]
      },
      "properties": {
        "name": "Unipolis Garden",
        "type": "garden"
      }
    },
    {
      "type": "Feature",
      "geometry": {
        "type": "Polygon",
        "coordinates": [
          [
            [
              75.70168237991219,
              31.254107717578087
            ],
            [
              75.70217436557752,
              31.253953654450463
            ],
            [
              75.70231762008781,
              31.254292282421915
            ],
            [
              75.70182563442248,
              31.25444634554954
            ],
            [
              75.70168237991219,
              31.254107717578087
            ]
          ]
        ]
      },
      "properties": {
        "name": "Urban Spido Park",
        "type": "park"
      }
    },
    {
      "type": "Feature",
      "geometry": {
        "type": "Polygon",
        "coordinates": [
          [
            [
              75.70153157847872,
              31.253492311265322
            ],
            [
              75.701925167011,
              31.253369060763223
            ],
            [
              75.70206842152129,
              31.253707688734675
            ],
            [
              75.70167483298901,
              31.253830939236774
            ],
            [
              75.70153157847872,
              31.253492311265322
            ]
          ]
        ]
      },
      "properties": {
        "name": "Academic Quad Lawn",
        "type": "lawn"
      }
    },
    {
      "type": "Feature",
      "geometry": {
        "type": "Polygon",
        "coordinates": [
          [
            [
              75.70113318134565,
              31.254923123890848
            ],
            [
              75.70172356414405,
              31.2547382481377
            ],
            [
              75.70186681865434,
              31.25507687610915
            ],
            [
              75.70127643585595,
              31.2552617518623
            ],
            [
              75.70113318134565,
              31.254923123890848
            ]
          ]
        ]
      },
      "properties": {
        "name": "Hostel Green Grounds",
        "type": "lawn"
      }
    },
    {
      "type": "Feature",
      "geometry": {
        "type": "Polygon",
        "coordinates": [
          [
            [
              75.70039038279839,
              31.25441512424685
            ],
            [
              75.70041047977308,
              31.254492997502602
            ],
            [
              75.70040711635245,
              31.25457498280432
            ],
            [
              75.70038042179087,
              31.254657929502837
            ],
            [
              75.70033142194536,
              31.254738650003052
            ],
            [
              75.70026199985253,
              31.2548140422614
            ],
            [
              75.70017482336445,
              31.25488120899568
            ],
            [
              75.70007324262468,
              31.254937569025962
            ],
            [
              75.69996116132408,
              31.254980956467886
            ],
            [
              75.69984288668417,
              31.25500970396639
            ],
            [
              75.69972296393304,
              31.255022706771236
            ],
            [
              75.69960600163476,
              31.255019465191914
            ],
            [
              75.69949649458488,
              31.25500010380051
            ],
            [
              75.69939865107787,
              31.254965366644427
            ],
            [
              75.69931623118487,
              31.254916588653103
            ],
            [
              75.69925240225614,
              31.254855644337386
            ],
            [
              75.6992096172016,
              31.25478487575315
            ],
            [
              75.69918952022691,
              31.254707002497398
            ],
            [
              75.69919288364754,
              31.25462501719568
            ],
            [
              75.69921957820912,
              31.254542070497163
            ],
            [
              75.69926857805463,
              31.254461349996948
            ],
            [
              75.69933800014746,
              31.2543859577386
            ],
            [
              75.69942517663554,
              31.25431879100432
            ],
            [
              75.69952675737531,
              31.254262430974038
            ],
            [
              75.69963883867591,
              31.254219043532114
            ],
            [
              75.69975711331583,
              31.25419029603361
            ],
            [
              75.69987703606695,
              31.254177293228764
            ],
            [
              75.69999399836523,
              31.254180534808086
            ],
            [
              75.70010350541511,
              31.25419989619949
            ],
            [
              75.70020134892212,
              31.254234633355573
            ],
            [
              75.70028376881513,
              31.254283411346897
            ],
            [
              75.70034759774386,
              31.254344355662614
            ],
            [
              75.70039038279839,
              31.25441512424685
            ]
          ]
        ]
      },
      "properties": {
        "name": "Cricket Stadium outfield",
        "type": "sports_ground"
      }
    }
  ]
}